KUIPER-00157            
1 65970U 25228Z   25300.49769531  .00026209  00000+0  78590-3 0  9990
2 65970  51.8811 243.3733 0005822 199.8420 160.2340 15.34288145  3312
